{
  "type": "FeatureCollection",
  "features": [
    {
      "type": "Feature",
      "properties": {
        "norad_id": 37530,
        "name": "COSMOS 2251 DEB",
        "group": "cosmos-2251-debris",
        "lat": 25.84218459741124,
        "lon": 144.38318988831693,
        "alt_km": 784.2780087882256,
        "timestamp": "2025-12-13T10:41:26.164003+00:00",
        "meta_object_name": "COSMOS 2251 DEB",
        "meta_object_id": "1993-036BNK",
        "meta_epoch": "2025-12-10T08:38:54.155328",
        "meta_mean_motion": 14.34498847,
        "meta_eccentricity": 0.00257113,
        "meta_inclination": 74.0355,
        "meta_ra_of_asc_node": 338.0003,
        "meta_arg_of_pericenter": 40.6247,
        "meta_mean_anomaly": 26.3966,
        "meta_ephemeris_type": 0,
        "meta_classification_type": "U",
        "meta_norad_cat_id": 37530,
        "meta_element_set_no": 999,
        "meta_rev_at_epoch": 85198,
        "meta_bstar": 0.00036135133,
        "meta_mean_motion_dot": 9.97e-06,
        "meta_mean_motion_ddot": 0,
        "tle_line1": "1 37530U 93036BNK 25344.36034902  .00000997  00000+0  36135-3 0  9999",
        "tle_line2": "2 37530  74.0355 338.0003 0025711  40.6247  26.3966 14.34498847851985"
      },
      "geometry": {
        "type": "Point",
        "coordinates": [
          144.38318988831693,
          25.84218459741124
        ]
      }
    },
    {
      "type": "Feature",
      "properties": {
        "norad_id": 37532,
        "name": "COSMOS 2251 DEB",
        "group": "cosmos-2251-debris",
        "lat": -44.838065887611435,
        "lon": -162.1093022755926,
        "alt_km": 745.5322541049063,
        "timestamp": "2025-12-13T10:41:26.164013+00:00",
        "meta_object_name": "COSMOS 2251 DEB",
        "meta_object_id": "1993-036BNM",
        "meta_epoch": "2025-12-12T21:39:46.748160",
        "meta_mean_motion": 14.4240789,
        "meta_eccentricity": 0.00159727,
        "meta_inclination": 74.0496,
        "meta_ra_of_asc_node": 215.4183,
        "meta_arg_of_pericenter": 316.0746,
        "meta_mean_anomaly": 59.3162,
        "meta_ephemeris_type": 0,
        "meta_classification_type": "U",
        "meta_norad_cat_id": 37532,
        "meta_element_set_no": 999,
        "meta_rev_at_epoch": 84918,
        "meta_bstar": 0.00031840212,
        "meta_mean_motion_dot": 1.028e-05,
        "meta_mean_motion_ddot": 0,
        "tle_line1": "1 37532U 93036BNM 25346.90262440  .00001028  00000+0  31840-3 0  9997",
        "tle_line2": "2 37532  74.0496 215.4183 0015972 316.0746  59.3162 14.42407890849182"
      },
      "geometry": {
        "type": "Point",
        "coordinates": [
          -162.1093022755926,
          -44.838065887611435
        ]
      }
    },
    {
      "type": "Feature",
      "properties": {
        "norad_id": 37533,
        "name": "COSMOS 2251 DEB",
        "group": "cosmos-2251-debris",
        "lat": -29.040629931008244,
        "lon": -178.56195089954582,
        "alt_km": 841.2943139814952,
        "timestamp": "2025-12-13T10:41:26.164023+00:00",
        "meta_object_name": "COSMOS 2251 DEB",
        "meta_object_id": "1993-036BNN",
        "meta_epoch": "2025-12-10T19:55:37.417152",
        "meta_mean_motion": 14.12152288,
        "meta_eccentricity": 0.01580439,
        "meta_inclination": 74.0697,
        "meta_ra_of_asc_node": 195.1706,
        "meta_arg_of_pericenter": 252.2523,
        "meta_mean_anomaly": 106.1316,
        "meta_ephemeris_type": 0,
        "meta_classification_type": "U",
        "meta_norad_cat_id": 37533,
        "meta_element_set_no": 999,
        "meta_rev_at_epoch": 62894,
        "meta_bstar": 0.0019185157,
        "meta_mean_motion_dot": 3.939e-05,
        "meta_mean_motion_ddot": 0,
        "tle_line1": "1 37533U 93036BNN 25344.83029418  .00003939  00000+0  19185-2 0  9994",
        "tle_line2": "2 37533  74.0697 195.1706 0158043 252.2523 106.1316 14.12152288628948"
      },
      "geometry": {
        "type": "Point",
        "coordinates": [
          -178.56195089954582,
          -29.040629931008244
        ]
      }
    },
    {
      "type": "Feature",
      "properties": {
        "norad_id": 37535,
        "name": "COSMOS 2251 DEB",
        "group": "cosmos-2251-debris",
        "lat": 7.102834888514148,
        "lon": 74.20232699415065,
        "alt_km": 717.8890500428115,
        "timestamp": "2025-12-13T10:41:26.164033+00:00",
        "meta_object_name": "COSMOS 2251 DEB",
        "meta_object_id": "1993-036BNQ",
        "meta_epoch": "2025-12-11T22:58:54.277824",
        "meta_mean_motion": 14.58448247,
        "meta_eccentricity": 0.0027855,
        "meta_inclination": 74.0237,
        "meta_ra_of_asc_node": 74.9896,
        "meta_arg_of_pericenter": 214.018,
        "meta_mean_anomaly": 264.5877,
        "meta_ephemeris_type": 0,
        "meta_classification_type": "U",
        "meta_norad_cat_id": 37535,
        "meta_element_set_no": 999,
        "meta_rev_at_epoch": 85313,
        "meta_bstar": 0.0012946,
        "meta_mean_motion_dot": 6.014e-05,
        "meta_mean_motion_ddot": 0,
        "tle_line1": "1 37535U 93036BNQ 25345.95757266  .00006014  00000+0  12946-2 0  9994",
        "tle_line2": "2 37535  74.0237  74.9896 0027855 214.0180 264.5877 14.58448247853130"
      },
      "geometry": {
        "type": "Point",
        "coordinates": [
          74.20232699415065,
          7.102834888514148
        ]
      }
    },
    {
      "type": "Feature",
      "properties": {
        "norad_id": 37537,
        "name": "COSMOS 2251 DEB",
        "group": "cosmos-2251-debris",
        "lat": 32.79896723790811,
        "lon": 73.17963057190116,
        "alt_km": 771.5519457155124,
        "timestamp": "2025-12-13T10:41:26.164043+00:00",
        "meta_object_name": "COSMOS 2251 DEB",
        "meta_object_id": "1993-036BNS",
        "meta_epoch": "2025-12-11T11:15:11.696832",
        "meta_mean_motion": 14.37489039,
        "meta_eccentricity": 0.00502138,
        "meta_inclination": 74.0122,
        "meta_ra_of_asc_node": 267.468,
        "meta_arg_of_pericenter": 48.0201,
        "meta_mean_anomaly": 312.5213,
        "meta_ephemeris_type": 0,
        "meta_classification_type": "U",
        "meta_norad_cat_id": 37537,
        "meta_element_set_no": 999,
        "meta_rev_at_epoch": 85015,
        "meta_bstar": 0.0003879169,
        "meta_mean_motion_dot": 1.152e-05,
        "meta_mean_motion_ddot": 0,
        "tle_line1": "1 37537U 93036BNS 25345.46888538  .00001152  00000+0  38792-3 0  9995",
        "tle_line2": "2 37537  74.0122 267.4680 0050213  48.0201 312.5213 14.37489039850156"
      },
      "geometry": {
        "type": "Point",
        "coordinates": [
          73.17963057190116,
          32.79896723790811
        ]
      }
    },
    {
      "type": "Feature",
      "properties": {
        "norad_id": 37546,
        "name": "COSMOS 2251 DEB",
        "group": "cosmos-2251-debris",
        "lat": -26.236283773084313,
        "lon": 88.49280293889011,
        "alt_km": 635.7117936534951,
        "timestamp": "2025-12-13T10:41:26.164053+00:00",
        "meta_object_name": "COSMOS 2251 DEB",
        "meta_object_id": "1993-036BPB",
        "meta_epoch": "2025-12-12T07:14:41.883360",
        "meta_mean_motion": 14.80502899,
        "meta_eccentricity": 0.00057425,
        "meta_inclination": 74.0201,
        "meta_ra_of_asc_node": 98.8674,
        "meta_arg_of_pericenter": 110.1811,
        "meta_mean_anomaly": 249.9983,
        "meta_ephemeris_type": 0,
        "meta_classification_type": "U",
        "meta_norad_cat_id": 37546,
        "meta_element_set_no": 999,
        "meta_rev_at_epoch": 65881,
        "meta_bstar": 0.0040733995,
        "meta_mean_motion_dot": 0.00031311,
        "meta_mean_motion_ddot": 0,
        "tle_line1": "1 37546U 93036BPB 25346.30187365  .00031311  00000+0  40734-2 0  9997",
        "tle_line2": "2 37546  74.0201  98.8674 0005742 110.1811 249.9983 14.80502899658812"
      },
      "geometry": {
        "type": "Point",
        "coordinates": [
          88.49280293889011,
          -26.236283773084313
        ]
      }
    },
    {
      "type": "Feature",
      "properties": {
        "norad_id": 37959,
        "name": "COSMOS 2251 DEB",
        "group": "cosmos-2251-debris",
        "lat": 65.09089276285776,
        "lon": -162.53010533525182,
        "alt_km": 691.3785037015114,
        "timestamp": "2025-12-13T10:41:26.164063+00:00",
        "meta_object_name": "COSMOS 2251 DEB",
        "meta_object_id": "1993-036BPJ",
        "meta_epoch": "2025-12-12T21:34:00.178752",
        "meta_mean_motion": 14.58148187,
        "meta_eccentricity": 0.00578327,
        "meta_inclination": 74.0111,
        "meta_ra_of_asc_node": 56.6408,
        "meta_arg_of_pericenter": 199.3367,
        "meta_mean_anomaly": 281.3245,
        "meta_ephemeris_type": 0,
        "meta_classification_type": "U",
        "meta_norad_cat_id": 37959,
        "meta_element_set_no": 999,
        "meta_rev_at_epoch": 80129,
        "meta_bstar": 0.0010632264,
        "meta_mean_motion_dot": 4.988e-05,
        "meta_mean_motion_ddot": 0,
        "tle_line1": "1 37959U 93036BPJ 25346.89861318  .00004988  00000+0  10632-2 0  9990",
        "tle_line2": "2 37959  74.0111  56.6408 0057832 199.3367 281.3245 14.58148187801293"
      },
      "geometry": {
        "type": "Point",
        "coordinates": [
          -162.53010533525182,
          65.09089276285776
        ]
      }
    }
  ]
}